{
  "type": "FeatureCollection",
  "features": [
    {
      "type": "Feature",
      "properties": {
        "norad_id": 33765,
        "name": "COSMOS 2251 DEB",
        "group": "cosmos-2251-debris",
        "lat": -39.592928648591894,
        "lon": 7.354388689702261,
        "alt_km": 509.95443610606526,
        "timestamp": "2025-12-12T11:38:31.805056+00:00",
        "meta_object_name": "COSMOS 2251 DEB",
        "meta_object_id": "1993-036N",
        "meta_epoch": "2025-12-12T00:13:55.653888",
        "meta_mean_motion": 15.09921754,
        "meta_eccentricity": 0.0065568,
        "meta_inclination": 74.0089,
        "meta_ra_of_asc_node": 174.6166,
        "meta_arg_of_pericenter": 266.9211,
        "meta_mean_anomaly": 251.8709,
        "meta_ephemeris_type": 0,
        "meta_classification_type": "U",
        "meta_norad_cat_id": 33765,
        "meta_element_set_no": 999,
        "meta_rev_at_epoch": 89607,
        "meta_bstar": 0.0025079,
        "meta_mean_motion_dot": 0.00043,
        "meta_mean_motion_ddot": 0,
        "tle_line1": "1 33765U 93036N   25346.00967192  .00043000  00000+0  25079-2 0  9990",
        "tle_line2": "2 33765  74.0089 174.6166 0065568 266.9211 251.8709 15.09921754896077"
      },
      "geometry": {
        "type": "Point",
        "coordinates": [
          7.354388689702261,
          -39.592928648591894
        ]
      }
    },
    {
      "type": "Feature",
      "properties": {
        "norad_id": 33766,
        "name": "COSMOS 2251 DEB",
        "group": "cosmos-2251-debris",
        "lat": 34.844790661681635,
        "lon": -55.938291522414886,
        "alt_km": 816.8449597952786,
        "timestamp": "2025-12-12T11:38:31.805067+00:00",
        "meta_object_name": "COSMOS 2251 DEB",
        "meta_object_id": "1993-036P",
        "meta_epoch": "2025-12-12T02:36:33.781248",
        "meta_mean_motion": 14.34931438,
        "meta_eccentricity": 0.0064133,
        "meta_inclination": 74.1856,
        "meta_ra_of_asc_node": 136.1249,
        "meta_arg_of_pericenter": 339.6713,
        "meta_mean_anomaly": 20.1887,
        "meta_ephemeris_type": 0,
        "meta_classification_type": "U",
        "meta_norad_cat_id": 33766,
        "meta_element_set_no": 999,
        "meta_rev_at_epoch": 87736,
        "meta_bstar": 0.00083258,
        "meta_mean_motion_dot": 2.399e-05,
        "meta_mean_motion_ddot": 0,
        "tle_line1": "1 33766U 93036P   25346.10872432  .00002399  00000+0  83258-3 0  9994",
        "tle_line2": "2 33766  74.1856 136.1249 0064133 339.6713  20.1887 14.34931438877360"
      },
      "geometry": {
        "type": "Point",
        "coordinates": [
          -55.938291522414886,
          34.844790661681635
        ]
      }
    },
    {
      "type": "Feature",
      "properties": {
        "norad_id": 33768,
        "name": "COSMOS 2251 DEB",
        "group": "cosmos-2251-debris",
        "lat": 33.924298016893076,
        "lon": 29.202917660872696,
        "alt_km": 1193.29511019035,
        "timestamp": "2025-12-12T11:38:31.805078+00:00",
        "meta_object_name": "COSMOS 2251 DEB",
        "meta_object_id": "1993-036R",
        "meta_epoch": "2025-12-12T02:41:57.418368",
        "meta_mean_motion": 13.58453918,
        "meta_eccentricity": 0.0366297,
        "meta_inclination": 74.0682,
        "meta_ra_of_asc_node": 220.8801,
        "meta_arg_of_pericenter": 18.757,
        "meta_mean_anomaly": 100.6517,
        "meta_ephemeris_type": 0,
        "meta_classification_type": "U",
        "meta_norad_cat_id": 33768,
        "meta_element_set_no": 999,
        "meta_rev_at_epoch": 83287,
        "meta_bstar": 0.00047721,
        "meta_mean_motion_dot": 5.18e-06,
        "meta_mean_motion_ddot": 0,
        "tle_line1": "1 33768U 93036R   25346.11247012  .00000518  00000+0  47721-3 0  9993",
        "tle_line2": "2 33768  74.0682 220.8801 0366297  18.7570 100.6517 13.58453918832873"
      },
      "geometry": {
        "type": "Point",
        "coordinates": [
          29.202917660872696,
          33.924298016893076
        ]
      }
    },
    {
      "type": "Feature",
      "properties": {
        "norad_id": 33779,
        "name": "COSMOS 2251 DEB",
        "group": "cosmos-2251-debris",
        "lat": 73.85654762013262,
        "lon": -90.03117248329501,
        "alt_km": 656.7760704978027,
        "timestamp": "2025-12-12T11:38:31.805089+00:00",
        "meta_object_name": "COSMOS 2251 DEB",
        "meta_object_id": "1993-036U",
        "meta_epoch": "2025-12-11T20:48:57.052800",
        "meta_mean_motion": 14.70416565,
        "meta_eccentricity": 0.0017055,
        "meta_inclination": 74.045,
        "meta_ra_of_asc_node": 172.414,
        "meta_arg_of_pericenter": 205.9917,
        "meta_mean_anomaly": 217.8136,
        "meta_ephemeris_type": 0,
        "meta_classification_type": "U",
        "meta_norad_cat_id": 33779,
        "meta_element_set_no": 999,
        "meta_rev_at_epoch": 88515,
        "meta_bstar": 0.0029068,
        "meta_mean_motion_dot": 0.00017654,
        "meta_mean_motion_ddot": 0,
        "tle_line1": "1 33779U 93036U   25345.86732700  .00017654  00000+0  29068-2 0  9991",
        "tle_line2": "2 33779  74.0450 172.4140 0017055 205.9917 217.8136 14.70416565885155"
      },
      "geometry": {
        "type": "Point",
        "coordinates": [
          -90.03117248329501,
          73.85654762013262
        ]
      }
    },
    {
      "type": "Feature",
      "properties": {
        "norad_id": 33782,
        "name": "COSMOS 2251 DEB",
        "group": "cosmos-2251-debris",
        "lat": -56.9536056193294,
        "lon": 124.12654461608577,
        "alt_km": 766.8322892987035,
        "timestamp": "2025-12-12T11:38:31.805099+00:00",
        "meta_object_name": "COSMOS 2251 DEB",
        "meta_object_id": "1993-036X",
        "meta_epoch": "2025-12-12T04:09:37.438272",
        "meta_mean_motion": 14.40445901,
        "meta_eccentricity": 0.0020747,
        "meta_inclination": 74.0336,
        "meta_ra_of_asc_node": 278.594,
        "meta_arg_of_pericenter": 343.4222,
        "meta_mean_anomaly": 81.5191,
        "meta_ephemeris_type": 0,
        "meta_classification_type": "U",
        "meta_norad_cat_id": 33782,
        "meta_element_set_no": 999,
        "meta_rev_at_epoch": 88118,
        "meta_bstar": 0.00072233,
        "meta_mean_motion_dot": 2.276e-05,
        "meta_mean_motion_ddot": 0,
        "tle_line1": "1 33782U 93036X   25346.17334998  .00002276  00000+0  72233-3 0  9994",
        "tle_line2": "2 33782  74.0336 278.5940 0020747 343.4222  81.5191 14.40445901881186"
      },
      "geometry": {
        "type": "Point",
        "coordinates": [
          124.12654461608577,
          -56.9536056193294
        ]
      }
    },
    {
      "type": "Feature",
      "properties": {
        "norad_id": 33785,
        "name": "COSMOS 2251 DEB",
        "group": "cosmos-2251-debris",
        "lat": 61.25212522082394,
        "lon": 92.27422058565602,
        "alt_km": 646.8269771735986,
        "timestamp": "2025-12-12T11:38:31.805110+00:00",
        "meta_object_name": "COSMOS 2251 DEB",
        "meta_object_id": "1993-036AA",
        "meta_epoch": "2025-12-11T16:28:47.430912",
        "meta_mean_motion": 14.70451506,
        "meta_eccentricity": 0.00221986,
        "meta_inclination": 73.8671,
        "meta_ra_of_asc_node": 61.9922,
        "meta_arg_of_pericenter": 1.6751,
        "meta_mean_anomaly": 159.1199,
        "meta_ephemeris_type": 0,
        "meta_classification_type": "U",
        "meta_norad_cat_id": 33785,
        "meta_element_set_no": 999,
        "meta_rev_at_epoch": 88491,
        "meta_bstar": 0.003133433,
        "meta_mean_motion_dot": 0.00019081,
        "meta_mean_motion_ddot": 0,
        "tle_line1": "1 33785U 93036AA  25345.68666008  .00019081  00000+0  31334-2 0  9990",
        "tle_line2": "2 33785  73.8671  61.9922 0022198   1.6751 159.1199 14.70451506884919"
      },
      "geometry": {
        "type": "Point",
        "coordinates": [
          92.27422058565602,
          61.25212522082394
        ]
      }
    },
    {
      "type": "Feature",
      "properties": {
        "norad_id": 33789,
        "name": "COSMOS 2251 DEB",
        "group": "cosmos-2251-debris",
        "lat": -37.372012585925866,
        "lon": 75.23443497508526,
        "alt_km": 1016.3805241738955,
        "timestamp": "2025-12-12T11:38:31.805121+00:00",
        "meta_object_name": "COSMOS 2251 DEB",
        "meta_object_id": "1993-036AE",
        "meta_epoch": "2025-12-12T00:18:04.281120",
        "meta_mean_motion": 13.8879373,
        "meta_eccentricity": 0.0240219,
        "meta_inclination": 74.0648,
        "meta_ra_of_asc_node": 88.6401,
        "meta_arg_of_pericenter": 204.436,
        "meta_mean_anomaly": 272.417,
        "meta_ephemeris_type": 0,
        "meta_classification_type": "U",
        "meta_norad_cat_id": 33789,
        "meta_element_set_no": 999,
        "meta_rev_at_epoch": 85085,
        "meta_bstar": 0.0012401,
        "meta_mean_motion_dot": 1.862e-05,
        "meta_mean_motion_ddot": 0,
        "tle_line1": "1 33789U 93036AE  25346.01254955  .00001862  00000+0  12401-2 0  9998",
        "tle_line2": "2 33789  74.0648  88.6401 0240219 204.4360 272.4170 13.88793730850853"
      },
      "geometry": {
        "type": "Point",
        "coordinates": [
          75.23443497508526,
          -37.372012585925866
        ]
      }
    }
  ]
}